{"epoch":1784710044,"count":18256,"objects":[{"id":"56362","name":"STARLINK-5972","type":"PAYLOAD","l1":"1 56362U 23058AX  26202.25074927  .00000338  00000-0  27334-4 0  9995","l2":"2 56362  97.2844 200.5474 0002200  97.2684 262.8794 15.05659188178293"},{"id":"56374","name":"STARLINK-6156","type":"PAYLOAD","l1":"1 56374U 23061A   26202.26690850 -.00000004  00000-0  93619-5 0  9993","l2":"2 56374  43.0033 163.9507 0000379 307.7054  52.3764 15.27576773178278"},{"id":"56375","name":"STARLINK-6158","type":"PAYLOAD","l1":"1 56375U 23061B   26202.61296628  .00000173  00000-0  15816-4 0  9996","l2":"2 56375  43.0035 161.3907 0001535 271.5724  88.4952 15.27577191177233"},{"id":"56376","name":"STARLINK-6188","type":"PAYLOAD","l1":"1 56376U 23061C   26202.60268775  .00000131  00000-0  14284-4 0  9990","l2":"2 56376  43.0036 161.3146 0001017 294.3564  65.7182 15.27578425177234"},{"id":"56377","name":"STARLINK-6189","type":"PAYLOAD","l1":"1 56377U 23061D   26201.94640025 -.00000406  00000-0 -52348-5 0  9990","l2":"2 56377  43.0016 165.8413 0000952 270.9598  89.1145 15.27576417177129"},{"id":"56378","name":"STARLINK-6191","type":"PAYLOAD","l1":"1 56378U 23061E   26202.28218273  .00000916  00000-0  42808-4 0  9998","l2":"2 56378  43.0035 163.2049 0001541 280.4748  79.5930 15.27576672177180"},{"id":"56379","name":"STARLINK-6157","type":"PAYLOAD","l1":"1 56379U 23061F   26201.63474125  .00000127  00000-0  14146-4 0  9995","l2":"2 56379  43.0038 166.9547 0001759 282.9183  77.1472 15.27576904178182"},{"id":"56381","name":"STARLINK-6159","type":"PAYLOAD","l1":"1 56381U 23061H   26202.58484651 -.00000132  00000-0  47259-5 0  9997","l2":"2 56381  43.0007 162.0330 0000672 254.7968 105.2810 15.27576433177229"},{"id":"56382","name":"STARLINK-6160","type":"PAYLOAD","l1":"1 56382U 23061J   26201.27197848  .00000654  00000-0  33287-4 0  9995","l2":"2 56382  43.0010 169.3780 0001077 269.5973  90.4755 15.27572662177024"},{"id":"56383","name":"STARLINK-6166","type":"PAYLOAD","l1":"1 56383U 23061K   26202.57585655  .00000030  00000-0  10627-4 0  9998","l2":"2 56383  43.0034 161.9670 0001468 268.0233  92.0451 15.27578805177222"},{"id":"56384","name":"STARLINK-6153","type":"PAYLOAD","l1":"1 56384U 23061L   26202.57327789  .00000129  00000-0  14208-4 0  9999","l2":"2 56384  43.0007 161.9470 0001043 275.3290  84.7443 15.27580995177226"},{"id":"56385","name":"STARLINK-6173","type":"PAYLOAD","l1":"1 56385U 23061M   26202.30530219  .00001447  00000-0  62108-4 0  9991","l2":"2 56385  42.9997 163.3749 0003216 244.1962 115.8558 15.27581345177180"},{"id":"56386","name":"STARLINK-5836","type":"PAYLOAD","l1":"1 56386U 23061N   26202.58098942  .00000110  00000-0  13519-4 0  9992","l2":"2 56386  43.0010 162.0019 0001061 264.0186  96.0545 15.27578116177223"},{"id":"56387","name":"STARLINK-6178","type":"PAYLOAD","l1":"1 56387U 23061P   26202.28346786 -.00000043  00000-0  79484-5 0  9992","l2":"2 56387  43.0037 163.2187 0001364 278.9067  81.1630 15.27575703177184"},{"id":"56388","name":"STARLINK-6176","type":"PAYLOAD","l1":"1 56388U 23061Q   26202.26433747 -.00000639  00000-0 -13699-4 0  9992","l2":"2 56388  43.0020 163.9125 0000796 264.7661  95.3100 15.27572246177174"},{"id":"56389","name":"STARLINK-6145","type":"PAYLOAD","l1":"1 56389U 23061R   26202.31558974  .00000131  00000-0  14268-4 0  9997","l2":"2 56389  43.0007 163.4480 0001023 257.7679 102.3058 15.27577627177184"},{"id":"56391","name":"STARLINK-6298","type":"PAYLOAD","l1":"1 56391U 23061T   26202.60655305  .00001117  00000-0  50124-4 0  9994","l2":"2 56391  43.0064 161.3364 0001382 269.5648  90.5045 15.27575212177231"},{"id":"56392","name":"STARLINK-6301","type":"PAYLOAD","l1":"1 56392U 23061U   26202.54258803  .00000925  00000-0  43135-4 0  9990","l2":"2 56392  43.0018 151.2894 0001313 261.4881  98.5822 15.27588816177348"},{"id":"56393","name":"STARLINK-6303","type":"PAYLOAD","l1":"1 56393U 23061V   26202.17068149  .00000103  00000-0  13279-4 0  9996","l2":"2 56393  43.0025 164.0840 0001476 267.0019  93.0664 15.27577342177161"},{"id":"56394","name":"STARLINK-6305","type":"PAYLOAD","l1":"1 56394U 23061W   26201.26170863 -.00000196  00000-0  23980-5 0  9997","l2":"2 56394  43.0026 158.0174 0001397 290.5410  69.5292 15.27578332177158"},{"id":"56395","name":"STARLINK-6273","type":"PAYLOAD","l1":"1 56395U 23061X   26202.16826874 -.00003157  00000-0 -10526-3 0  9999","l2":"2 56395  43.0024 153.6327 0000770 260.8934  99.1830 15.27576924177997"},{"id":"56396","name":"STARLINK-6302","type":"PAYLOAD","l1":"1 56396U 23061Y   26202.58101086 -.00000682  00000-0 -15247-4 0  9993","l2":"2 56396  43.0036 150.7175 0001556 274.0805  85.9869 15.27570049172483"},{"id":"56397","name":"STARLINK-6271","type":"PAYLOAD","l1":"1 56397U 23061Z   26202.29133282 -.00000308  00000-0 -16905-5 0  9993","l2":"2 56397  43.0005 152.8363 0000613 281.3160  78.7623 15.27577665177305"},{"id":"56398","name":"STARLINK-6288","type":"PAYLOAD","l1":"1 56398U 23061AA  26201.99637731  .00000043  00000-0  11085-4 0  9995","l2":"2 56398  43.0038 154.0675 0001589 275.0972  84.9698 15.27578199177265"},{"id":"56399","name":"STARLINK-6277","type":"PAYLOAD","l1":"1 56399U 23061AB  26202.57715033  .00000664  00000-0  33648-4 0  9991","l2":"2 56399  43.0042 150.6932 0001127 273.4434  86.6288 15.27576438177350"},{"id":"56400","name":"STARLINK-6267","type":"PAYLOAD","l1":"1 56400U 23061AC  26201.93485040  .00000176  00000-0  15930-4 0  9997","l2":"2 56400  43.0032 154.4677 0001737 276.1397  83.9256 15.27574658177251"},{"id":"56404","name":"STARLINK-6287","type":"PAYLOAD","l1":"1 56404U 23061AG  26201.95668956 -.00000030  00000-0  84154-5 0  9997","l2":"2 56404  43.0011 154.6173 0001064 267.1264  92.9466 15.27576473177251"},{"id":"56405","name":"STARLINK-6285","type":"PAYLOAD","l1":"1 56405U 23061AH  26202.26435154  .00000128  00000-0  14192-4 0  9996","l2":"2 56405  43.0015 152.6370 0001649 271.2470  88.8193 15.27577573177306"},{"id":"56406","name":"STARLINK-6283","type":"PAYLOAD","l1":"1 56406U 23061AJ  26202.55931373  .00000981  00000-0  45148-4 0  9995","l2":"2 56406  43.0007 151.3943 0000769 216.7215 143.3584 15.27586451177343"},{"id":"56407","name":"STARLINK-6282","type":"PAYLOAD","l1":"1 56407U 23061AK  26202.21438081  .00000597  00000-0  31208-4 0  9992","l2":"2 56407  43.0020 153.1159 0001167 266.7212  93.3506 15.27576985177296"}]}