OBJECT_NAME,OBJECT_ID,EPOCH,MEAN_MOTION,ECCENTRICITY,INCLINATION,RA_OF_ASC_NODE,ARG_OF_PERICENTER,MEAN_ANOMALY,EPHEMERIS_TYPE,CLASSIFICATION_TYPE,NORAD_CAT_ID,ELEMENT_SET_NO,REV_AT_EPOCH,BSTAR,MEAN_MOTION_DOT,MEAN_MOTION_DDOT
STARLINK-5972,2023-058AX,2026-07-21T06:01:04.736928,15.05659188,.00022003,97.2844,200.5474,97.2684,262.8794,0,U,56362,999,17829,.27334368E-4,.338E-5,0
STARLINK-6156,2023-061A,2026-07-21T06:24:20.894400,15.27576773,.00003787,43.0033,163.9507,307.7054,52.3764,0,U,56374,999,17827,.9361861E-5,-.4E-7,0
STARLINK-6158,2023-061B,2026-07-21T14:42:40.286592,15.27577191,.00015353,43.0035,161.3907,271.5724,88.4952,0,U,56375,999,17723,.15815802E-4,.173E-5,0
STARLINK-6188,2023-061C,2026-07-21T14:27:52.221600,15.27578425,.00010166,43.0036,161.3146,294.3564,65.7182,0,U,56376,999,17723,.14284045E-4,.131E-5,0
STARLINK-6189,2023-061D,2026-07-20T22:42:48.981600,15.27576417,.0000952,43.0016,165.8413,270.9598,89.1145,0,U,56377,999,17712,-.5234756E-5,-.406E-5,0
STARLINK-6191,2023-061E,2026-07-21T06:46:20.587872,15.27576672,.00015409,43.0035,163.2049,280.4748,79.5930,0,U,56378,999,17718,.42808291E-4,.916E-5,0
STARLINK-6157,2023-061F,2026-07-20T15:14:01.644000,15.27576904,.00017591,43.0038,166.9547,282.9183,77.1472,0,U,56379,999,17818,.1414564E-4,.127E-5,0
STARLINK-6159,2023-061H,2026-07-21T14:02:10.738464,15.27576433,.00006715,43.0007,162.0330,254.7968,105.2810,0,U,56381,999,17722,.4725901E-5,-.132E-5,0
STARLINK-6160,2023-061J,2026-07-20T06:31:38.940672,15.27572662,.00010772,43.0010,169.3780,269.5973,90.4755,0,U,56382,999,17702,.33286669E-4,.654E-5,0
STARLINK-6166,2023-061K,2026-07-21T13:49:14.005920,15.27578805,.00014681,43.0034,161.9670,268.0233,92.0451,0,U,56383,999,17722,.10627404E-4,.3E-6,0
STARLINK-6153,2023-061L,2026-07-21T13:45:31.209696,15.27580995,.00010433,43.0007,161.9470,275.3290,84.7443,0,U,56384,999,17722,.14208384E-4,.129E-5,0
STARLINK-6173,2023-061M,2026-07-21T07:19:38.109216,15.27581345,.00032164,42.9997,163.3749,244.1962,115.8558,0,U,56385,999,17718,.62107546E-4,.1447E-4,0
STARLINK-5836,2023-061N,2026-07-21T13:56:37.485888,15.27578116,.00010608,43.0010,162.0019,264.0186,96.0545,0,U,56386,999,17722,.13519215E-4,.11E-5,0
STARLINK-6178,2023-061P,2026-07-21T06:48:11.623104,15.27575703,.00013642,43.0037,163.2187,278.9067,81.1630,0,U,56387,999,17718,.7948371E-5,-.43E-6,0
STARLINK-6176,2023-061Q,2026-07-21T06:20:38.757408,15.27572246,.0000796,43.0020,163.9125,264.7661,95.3100,0,U,56388,999,17717,-.13698643E-4,-.639E-5,0
STARLINK-6145,2023-061R,2026-07-21T07:34:26.953536,15.27577627,.00010232,43.0007,163.4480,257.7679,102.3058,0,U,56389,999,17718,.14267788E-4,.131E-5,0
STARLINK-6298,2023-061T,2026-07-21T14:33:26.183520,15.27575212,.00013825,43.0064,161.3364,269.5648,90.5045,0,U,56391,999,17723,.50123544E-4,.1117E-4,0
STARLINK-6301,2023-061U,2026-07-21T13:01:19.605792,15.27588816,.00013131,43.0018,151.2894,261.4881,98.5822,0,U,56392,999,17734,.43134558E-4,.925E-5,0
STARLINK-6303,2023-061V,2026-07-21T04:05:46.880736,15.27577342,.00014756,43.0025,164.0840,267.0019,93.0664,0,U,56393,999,17716,.13278535E-4,.103E-5,0
STARLINK-6305,2023-061W,2026-07-20T06:16:51.625632,15.27578332,.0001397,43.0026,158.0174,290.5410,69.5292,0,U,56394,999,17715,.2398028E-5,-.196E-5,0
STARLINK-6273,2023-061X,2026-07-21T04:02:18.419136,15.27576924,.00007696,43.0024,153.6327,260.8934,99.1830,0,U,56395,999,17799,-.10525518E-3,-.3157E-4,0
STARLINK-6302,2023-061Y,2026-07-21T13:56:39.338304,15.27570049,.00015558,43.0036,150.7175,274.0805,85.9869,0,U,56396,999,17248,-.1524688E-4,-.682E-5,0
STARLINK-6271,2023-061Z,2026-07-21T06:59:31.155648,15.27577665,.0000613,43.0005,152.8363,281.3160,78.7623,0,U,56397,999,17730,-.169048E-5,-.308E-5,0
STARLINK-6288,2023-061AA,2026-07-20T23:54:46.999584,15.27578199,.00015892,43.0038,154.0675,275.0972,84.9698,0,U,56398,999,17726,.11084967E-4,.43E-6,0
STARLINK-6277,2023-061AB,2026-07-21T13:51:05.788512,15.27576438,.00011272,43.0042,150.6932,273.4434,86.6288,0,U,56399,999,17735,.33648477E-4,.664E-5,0
STARLINK-6267,2023-061AC,2026-07-20T22:26:11.074560,15.27574658,.00017365,43.0032,154.4677,276.1397,83.9256,0,U,56400,999,17725,.15929734E-4,.176E-5,0
STARLINK-6287,2023-061AG,2026-07-20T22:57:37.977984,15.27576473,.00010643,43.0011,154.6173,267.1264,92.9466,0,U,56404,999,17725,.8415411E-5,-.3E-6,0
STARLINK-6285,2023-061AH,2026-07-21T06:20:39.973056,15.27577573,.00016486,43.0015,152.6370,271.2470,88.8193,0,U,56405,999,17730,.141916E-4,.128E-5,0
STARLINK-6283,2023-061AJ,2026-07-21T13:25:24.706272,15.27586451,.00007693,43.0007,151.3943,216.7215,143.3584,0,U,56406,999,17734,.45147811E-4,.981E-5,0
STARLINK-6282,2023-061AK,2026-07-21T05:08:42.501984,15.27576985,.00011672,43.0020,153.1159,266.7212,93.3506,0,U,56407,999,17729,.31208304E-4,.597E-5,0
